{
    "links": {
        "self": "http://www.neowsapp.com/rest/v1/neo/3644816?api_key=iIulBulltgU6a56xZRHN4H3l9WmuAYTsLGpBGhQ2"
    },
    "id": "3644816",
    "neo_reference_id": "3644816",
    "name": "(2013 NL10)",
    "designation": "2013 NL10",
    "nasa_jpl_url": "http://ssd.jpl.nasa.gov/sbdb.cgi?sstr=3644816",
    "absolute_magnitude_h": 22.8,
    "estimated_diameter": {
        "kilometers": {
            "estimated_diameter_min": 0.0732073989,
            "estimated_diameter_max": 0.1636967205
        },
        "meters": {
            "estimated_diameter_min": 73.2073989347,
            "estimated_diameter_max": 163.696720474
        },
        "miles": {
            "estimated_diameter_min": 0.0454889547,
            "estimated_diameter_max": 0.1017163949
        },
        "feet": {
            "estimated_diameter_min": 240.181762721,
            "estimated_diameter_max": 537.0627483999
        }
    },
    "is_potentially_hazardous_asteroid": false,
    "close_approach_data": [
        {
            "close_approach_date": "2010-06-27",
            "close_approach_date_full": "2010-Jun-27 23:32",
            "epoch_date_close_approach": 1277681520000,
            "relative_velocity": {
                "kilometers_per_second": "15.2211907934",
                "kilometers_per_hour": "54796.2868561252",
                "miles_per_hour": "34048.2816856851"
            },
            "miss_distance": {
                "astronomical": "0.3307235757",
                "lunar": "128.6514709473",
                "kilometers": "49475542.483503759",
                "miles": "30742676.5423955142"
            },
            "orbiting_body": "Earth"
        },
        {
            "close_approach_date": "2013-07-22",
            "close_approach_date_full": "2013-Jul-22 01:55",
            "epoch_date_close_approach": 1374458100000,
            "relative_velocity": {
                "kilometers_per_second": "8.6935501917",
                "kilometers_per_hour": "31296.7806901501",
                "miles_per_hour": "19446.6024238325"
            },
            "miss_distance": {
                "astronomical": "0.1004043298",
                "lunar": "39.0572842922",
                "kilometers": "15020273.876857526",
                "miles": "9333165.4024488188"
            },
            "orbiting_body": "Earth"
        },
        {
            "close_approach_date": "2016-08-30",
            "close_approach_date_full": "2016-Aug-30 20:23",
            "epoch_date_close_approach": 1472588580000,
            "relative_velocity": {
                "kilometers_per_second": "10.3800211746",
                "kilometers_per_hour": "37368.0762285017",
                "miles_per_hour": "23219.0693654265"
            },
            "miss_distance": {
                "astronomical": "0.1719921368",
                "lunar": "66.9049412152",
                "kilometers": "25729657.322028616",
                "miles": "15987667.7019062608"
            },
            "orbiting_body": "Earth"
        },
        {
            "close_approach_date": "2019-09-20",
            "close_approach_date_full": "2019-Sep-20 10:14",
            "epoch_date_close_approach": 1568974440000,
            "relative_velocity": {
                "kilometers_per_second": "17.4359945031",
                "kilometers_per_hour": "62769.5802111546",
                "miles_per_hour": "39002.576103981"
            },
            "miss_distance": {
                "astronomical": "0.4138536862",
                "lunar": "160.9890839318",
                "kilometers": "61911629.947168394",
                "miles": "38470102.9667920772"
            },
            "orbiting_body": "Earth"
        }
    ],
    "orbital_data": {
        "orbit_id": "17",
        "orbit_determination_date": "2017-04-06 08:45:25",
        "first_observation_date": "2013-07-07",
        "last_observation_date": "2013-09-13",
        "data_arc_in_days": 68,
        "observations_used": 54,
        "orbit_uncertainty": "6",
        "minimum_orbit_intersection": ".0525732",
        "jupiter_tisserand_invariant": "3.572",
        "epoch_osculation": "2459000.5",
        "eccentricity": ".4922026837539852",
        "semi_major_axis": "2.099489434431177",
        "inclination": "8.698697020034258",
        "ascending_node_longitude": "132.9706798073722",
        "orbital_period": "1111.140473124249",
        "perihelion_distance": "1.066115100291015",
        "perihelion_argument": "182.8533452548702",
        "aphelion_distance": "3.132863768571338",
        "perihelion_time": "2458729.231878311190",
        "mean_anomaly": "87.88854890091979",
        "mean_motion": ".3239914382632198",
        "equinox": "J2000",
        "orbit_class": {
            "orbit_class_type": "AMO",
            "orbit_class_description": "Near-Earth asteroid orbits similar to that of 1221 Amor",
            "orbit_class_range": "1.017 AU < q (perihelion) < 1.3 AU"
        }
    },
    "is_sentry_object": false
}